LEMUR-1                 
1 40044U 14033AL  26064.86472839  .00002696  00000+0  31721-3 0  9997
2 40044  97.7710 217.0843 0049726  58.1584 302.4457 14.84775414630132
LEMUR-2-GREENBERG       
1 42837U 17042N   26064.92544172  .00019807  00000+0  73017-3 0  9995
2 42837  97.3767 246.3002 0009318  16.4949 343.6591 15.27801693472608
LEMUR-2-ANDIS           
1 42838U 17042P   26064.44028846  .00028096  00000+0  95685-3 0  9993
2 42838  97.3642 245.7075 0009410  18.4169 341.7410 15.30321098472567
LEMUR-2-MONSON          
1 42839U 17042Q   26064.91849777  .00017392  00000+0  70187-3 0  9997
2 42839  97.4024 246.4000 0006727   5.6555 354.4757 15.24836690472415
LEMUR-2-FURIAUS         
1 42840U 17042R   26064.56844376  .00029527  00000+0  11467-2 0  9998
2 42840  97.3740 244.1642 0007588  71.5362 288.6700 15.26004824472382
LEMUR-2-PETERG          
1 42841U 17042S   26064.94954798  .00020011  00000+0  70289-3 0  9998
2 42841  97.3970 250.1443 0003816 354.6830   5.4369 15.29420618472639
LEMUR-2-DEMBITZ         
1 42842U 17042T   26064.73935340  .00022428  00000+0  85294-3 0  9994
2 42842  97.3796 247.2311 0007139  29.8941 330.2704 15.26762203472541
LEMUR-2-ZACHARY         
1 42845U 17042W   26064.95306087  .00049310  00000+0  11650-2 0  9994
2 42845  97.3649 255.0120 0003746  30.6309 329.5156 15.41683522473258
LEMUR-2-JIN-LUEN        
1 43182U 18014C   26064.73185728  .00234399  00000+0  14100-2 0  9998
2 43182  97.5453 354.6445 0002249 128.0074 232.1395 15.77056809444840
LEMUR-2-KADI            
1 43184U 18014E   26064.82935088  .00096891  00000+0  10483-2 0  9995
2 43184  97.4718 349.2782 0000772  75.0735 285.0609 15.63272470444780
LEMUR-2-AMANDA-SVANTE   
1 48269U 21034B   26064.71702671  .00029082  00000+0  10588-2 0  9992
2 48269  97.5836 140.7299 0002296 216.7339 143.3743 15.28171862265224
LEMUR-2-SPECIAL-K       
1 48273U 21034F   26064.70089486  .00079581  00000+0  16929-2 0  9992
2 48273  97.5722 145.8420 0001431 221.1939 138.9201 15.44684882265623
LEMUR-2-EMBRIONOVIS     
1 56970U 23084AQ  26064.88918129  .00009485  00000+0  28537-3 0  9991
2 56970  97.6125 205.4480 0008510 327.5892  32.4827 15.34565765151822
LEMUR-2-MANO            
1 57390U 23100E   26064.98096266  .00133427  00000+0  16522-2 0  9991
2 57390  99.4554  86.2853 0001648  62.9717 297.1701 15.59614178145908
LEMUR-2-DEVERILL-M-T    
1 57391U 23100F   26064.93383622  .00030958  00000+0  92604-3 0  9993
2 57391  99.4576  74.3188 0008473  39.3780 320.8071 15.34487487145383
LEMUR-2-BASS            
1 58259U 23174D   26064.73050813  .00020807  00000+0  52938-3 0  9997
2 58259  97.3889 148.2574 0008059 175.9597 184.1716 15.39589202129421
LEMUR-2-JK0903EM1407    
1 58336U 23174CJ  26064.72575916  .00029649  00000+0  59891-3 0  9996
2 58336  97.3925 152.7243 0006233 128.9049 231.2757 15.46430929129713
LEMUR-2-MJR092620       
1 58340U 23174CN  26064.74412165  .00015604  00000+0  36735-3 0  9997
2 58340  97.3992 153.1186 0008116 126.9739 233.2252 15.42006698129696
LEMUR-2-NIMBUS2000      
1 58899U 24022A   26064.65417636  .00021622  00000+0  60561-3 0  9998
2 58899  97.4226 273.5310 0010480 126.2084 234.0131 15.36587788116356
LEMUR-2-VALHALLA        
1 58900U 24022B   26064.56757155  .00020778  00000+0  58648-3 0  9998
2 58900  97.4223 273.4788 0011078 122.3848 237.8469 15.36347625116341
LEMUR-2-OBA-NI-JESU     
1 58902U 24022D   26064.57495938  .00105683  00000+0  10902-2 0  9998
2 58902  97.4060 282.4241 0005096  83.4339 276.7500 15.64447647116952
LEMUR-2-CAEL            
1 58903U 24022E   26064.52824370  .00022008  00000+0  59909-3 0  9990
2 58903  97.4213 274.2063 0009427 106.9855 253.2423 15.37482559116393
LEMUR-2-JOHNNYTRUONG    
1 59146U 24043BA  26064.97952371  .00038955  00000+0  62881-3 0  9996
2 59146  97.5258 210.9657 0005381 196.5781 163.5296 15.52781796111980
LEMUR-2-TOMATOKECHUP    
1 60471U 24149D   26064.71238669  .00014751  00000+0  45572-3 0  9991
2 60471  97.3852 146.6557 0001093 196.8150 163.3056 15.33630523 86291
LEMUR-2-STELLA          
1 60533U 24149BT  26064.81527619  .00013639  00000+0  85789-3 0  9995
2 60533  97.6783 146.9963 0001687  93.9253 266.2168 15.09334481 84898
LEMUR-2-MARHISYAM       
1 60536U 24149BW  26064.69527938  .00015472  00000+0  98432-3 0  9994
2 60536  97.6926 147.2117 0003401 115.7232 244.4348 15.08884410 84867
LEMUR-2-AHMED-ASRAR     
1 60576U 24149DN  26064.82372547  .00013238  00000+0  81225-3 0  9997
2 60576  97.7039 149.0530 0002028  35.4272 324.7091 15.10250752 84958
LEMUR-2-LLOYD           
1 60577U 24149DP  26064.80836586  .00012149  00000+0  81314-3 0  9993
2 60577  97.6797 146.0341 0005331 132.9902 227.1773 15.07061886 84811
LEMUR-2-SQUIRRELCOMM    
1 60578U 24149DQ  26064.70709913  .00009923  00000+0  68802-3 0  9999
2 60578  97.6757 146.0304 0006119  53.3686 306.8102 15.05801114 84823
LEMUR-2-SIERRINI        
1 60579U 24149DR  26064.69659688  .00015575  00000+0  99970-3 0  9991
2 60579  97.6888 147.0048 0006235 161.0262 199.1200 15.08546315 84847
LEMUR-2-WILSON          
1 62694U 25009CP  26064.74825071  .00003770  00000+0  35302-3 0  9997
2 62694  97.7076 145.0465 0003715  44.5568 315.5951 14.94649053 61908
LEMUR-2-STAR-FOX        
1 62696U 25009CR  26064.74571206  .00012605  00000+0  99653-3 0  9993
2 62696  97.7054 147.2224 0002299 161.6004 198.5304 15.00786070 62030
LEMUR-2-ARIANNA         
1 62699U 25009CU  26064.74056101  .00010278  00000+0  81338-3 0  9993
2 62699  97.7013 147.0800 0004484 155.5198 204.6239 15.00793276 62032
LEMUR-2-ALISIA          
1 62706U 25009DB  26064.73814534  .00010284  00000+0  80809-3 0  9992
2 62706  97.7061 147.7305 0006395 168.5385 191.5986 15.01059198 84638
LEMUR-2-ROUNDTRIPPER    
1 62711U 25009DG  26064.69770534  .00011337  00000+0  86915-3 0  9998
2 62711  97.7305 147.6551 0004816 135.0712 225.0903 15.01979624 62088
LEMUR-2-MYNAMEISJEFF    
1 62712U 25009DH  26064.69624325  .00011585  00000+0  88834-3 0  9992
2 62712  97.7353 147.9734 0003986 161.5510 198.5860 15.01969507 62080
LEMUR-2-LEIA-PHILIP     
1 63246U 25052AN  26064.93788406  .00006081  00000+0  53898-3 0  9998
2 63246  97.6963 318.5960 0002879 190.4798 169.6364 14.96578558 53224
LEMUR-2-LIA-MARTIN      
1 63248U 25052AQ  26064.69229540  .00007690  00000+0  67726-3 0  9994
2 63248  97.7008 318.7132 0003244 154.2491 205.8893 14.96744608 53192
LEMUR-2-DELOITTE-1      
1 63259U 25052BB  26064.92845484  .00005818  00000+0  51373-3 0  9994
2 63259  97.7050 319.2580 0003257  86.7997 273.3597 14.96746271 53243
LEMUR-2-EMERSONROSE     
1 63261U 25052BD  26064.67109601  .00007600  00000+0  64534-3 0  9997
2 63261  97.7033 319.3559 0003193  59.5586 300.5952 14.98172264 53239
LEMUR-2-MARACHE-FRAN    
1 63262U 25052BE  26064.70332381  .00009294  00000+0  77479-3 0  9998
2 63262  97.6996 319.5779 0002342  43.6001 316.5407 14.98825559 53250
LEMUR-2-THEFALCONER     
1 63264U 25052BG  26064.93960457  .00005225  00000+0  46534-3 0  9994
2 63264  97.6987 319.0010 0002563  27.3199 332.8156 14.96455894 53247
LEMUR-2-UNTITLED-SC     
1 63351U 25061A   26064.92310640  .00005458  00000+0  31496-3 0  9992
2 63351  97.5557  41.1560 0017108 260.7576  99.1720 15.12646284 51974
LEMUR-2-ESPERANZA       
1 63352U 25061B   26064.90608410  .00004913  00000+0  28333-3 0  9997
2 63352  97.5560  41.2098 0016747 260.0141  99.9199 15.12720548 51979
LEMUR-2-KREMPEL-BRO2    
1 63353U 25061C   26064.89606504  .00005704  00000+0  32453-3 0  9995
2 63353  97.5606  41.6019 0017795 252.1236 107.8054 15.13125229 51985
LEMUR-2-THERMORAPTOR    
1 63354U 25061D   26064.88288561  .00006438  00000+0  36499-3 0  9993
2 63354  97.5614  41.6461 0017576 251.2009 108.7316 15.13203533 51987
LEMUR-2-NEUROSPICY      
1 63355U 25061E   26064.92844419  .00005979  00000+0  33845-3 0  9990
2 63355  97.5542  41.3982 0015195 254.7691 105.1860 15.13317725 51998
LEMUR-2-TILLINFINITY    
1 63356U 25061F   26064.93739274  .00006102  00000+0  33969-3 0  9990
2 63356  97.5527  41.6255 0016628 241.9529 118.0021 15.13893526 52012
LEMUR-2-KREMPEL-BRO1    
1 63357U 25061G   26064.89809731  .00005308  00000+0  29732-3 0  9992
2 63357  97.5524  41.5303 0017296 243.2658 116.6803 15.13720652 52003
LEMUR-2-LANGER2SPACE    
1 63358U 25061H   26064.90393723  .00005194  00000+0  29379-3 0  9994
2 63358  97.5531  41.3921 0015149 252.9963 106.9609 15.13408634 51993
LEMUR-2-BALTO           
1 63395U 25052BH  26064.68949890  .00008934  00000+0  74421-3 0  9995
2 63395  97.6992 319.5613 0002796   9.9397 350.1881 14.98864860 53254
